{
    "links": {
        "self": "http://www.neowsapp.com/rest/v1/neo/3645122?api_key=iIulBulltgU6a56xZRHN4H3l9WmuAYTsLGpBGhQ2"
    },
    "id": "3645122",
    "neo_reference_id": "3645122",
    "name": "(2013 ON2)",
    "designation": "2013 ON2",
    "nasa_jpl_url": "http://ssd.jpl.nasa.gov/sbdb.cgi?sstr=3645122",
    "absolute_magnitude_h": 24.7,
    "estimated_diameter": {
        "kilometers": {
            "estimated_diameter_min": 0.0305179233,
            "estimated_diameter_max": 0.0682401509
        },
        "meters": {
            "estimated_diameter_min": 30.5179232594,
            "estimated_diameter_max": 68.2401509401
        },
        "miles": {
            "estimated_diameter_min": 0.0189629525,
            "estimated_diameter_max": 0.0424024508
        },
        "feet": {
            "estimated_diameter_min": 100.1244233463,
            "estimated_diameter_max": 223.8850168104
        }
    },
    "is_potentially_hazardous_asteroid": false,
    "close_approach_data": [
        {
            "close_approach_date": "2013-07-06",
            "close_approach_date_full": "2013-Jul-06 13:21",
            "epoch_date_close_approach": 1373116860000,
            "relative_velocity": {
                "kilometers_per_second": "8.1253840777",
                "kilometers_per_hour": "29251.3826798568",
                "miles_per_hour": "18175.6716434922"
            },
            "miss_distance": {
                "astronomical": "0.0420837337",
                "lunar": "16.3705724093",
                "kilometers": "6295636.923167219",
                "miles": "3911927.3855728622"
            },
            "orbiting_body": "Earth"
        },
        {
            "close_approach_date": "2020-08-19",
            "close_approach_date_full": "2020-Aug-19 00:33",
            "epoch_date_close_approach": 1597797180000,
            "relative_velocity": {
                "kilometers_per_second": "22.2673877567",
                "kilometers_per_hour": "80162.5959241502",
                "miles_per_hour": "49809.919672981"
            },
            "miss_distance": {
                "astronomical": "0.4846557151",
                "lunar": "188.5310731739",
                "kilometers": "72503462.662286837",
                "miles": "45051562.6296268706"
            },
            "orbiting_body": "Earth"
        }
    ],
    "orbital_data": {
        "orbit_id": "10",
        "orbit_determination_date": "2017-04-06 08:45:18",
        "first_observation_date": "2013-07-17",
        "last_observation_date": "2013-08-11",
        "data_arc_in_days": 25,
        "observations_used": 20,
        "orbit_uncertainty": "7",
        "minimum_orbit_intersection": ".0373926",
        "jupiter_tisserand_invariant": "3.347",
        "epoch_osculation": "2459000.5",
        "eccentricity": ".5590066005467295",
        "semi_major_axis": "2.322602597049932",
        "inclination": "2.144589321874212",
        "ascending_node_longitude": "163.1512606720348",
        "orbital_period": "1292.887652567756",
        "perihelion_distance": "1.024252414852044",
        "perihelion_argument": "103.2493866444885",
        "aphelion_distance": "3.620952779247819",
        "perihelion_time": "2459051.113099470790",
        "mean_anomaly": "345.9069612326354",
        "mean_motion": ".2784464677073971",
        "equinox": "J2000",
        "orbit_class": {
            "orbit_class_type": "AMO",
            "orbit_class_description": "Near-Earth asteroid orbits similar to that of 1221 Amor",
            "orbit_class_range": "1.017 AU < q (perihelion) < 1.3 AU"
        }
    },
    "is_sentry_object": false
}